AMC-3                   
1 24936U 97050A   26062.99627912 -.00000271  00000+0  00000+0 0  9995
2 24936   7.8887  65.2783 0003483 287.8217  95.3034  1.00271818 51387
NSS-11                  
1 26554U 00059A   26065.22961262  .00000020  00000+0  00000+0 0  9995
2 26554   1.8606  82.6490 0003172 270.9226  69.0344  1.00272700 40251
AMC-6                   
1 26580U 00067A   26065.22454971  .00000083  00000+0  00000+0 0  9996
2 26580   0.0443 308.8885 0003091  40.6892 120.1377  1.00272794 92864
AMC-11                  
1 28252U 04017A   26065.27433542 -.00000054  00000+0  00000+0 0  9998
2 28252   0.0461  79.2801 0003231 274.2575 158.1136  1.00272757 79833
AMC-15                  
1 28446U 04041A   26065.27554876 -.00000094  00000+0  00000+0 0  9998
2 28446   0.0512 300.1987 0002563  29.6660 188.2660  1.00272379 78273
NSS-10                  
1 28526U 05003A   26063.45322368 -.00000260  00000+0  00000+0 0  9998
2 28526   6.1878  71.7201 0003261 277.1631 299.0193  1.00271252 52103
ASTRA 1KR               
1 29055U 06012A   26065.22874857  .00000114  00000+0  00000+0 0  9996
2 29055   0.2083  81.8698 0003395 252.8544 290.5559  1.00270287 44668
ASTRA 1L                
1 31306U 07016A   26065.22016852 -.00000189  00000+0  00000+0 0  9999
2 31306   1.0554  82.4080 0003386 279.9374 216.3962  1.00271139 43957
ASTRA 4A                
1 32299U 07057A   26065.22597522  .00000027  00000+0  00000+0 0  9994
2 32299   0.0497 296.4657 0002431  51.5377 262.0952  1.00271005 50618
ASTRA 1M                
1 33436U 08057A   26065.22883523  .00000114  00000+0  00000+0 0  9995
2 33436   0.0388  62.6230 0000812 356.4402 206.4567  1.00269412 44704
NSS-9                   
1 33749U 09008A   26065.26133537  .00000067  00000+0  00000+0 0  9993
2 33749   0.9954  83.6844 0002129 259.6543  97.7939  1.00273877 62485
SES-7 (PROTOSTAR 2)     
1 34941U 09027A   26065.26850390 -.00000350  00000+0  00000+0 0  9998
2 34941   0.0139  90.1445 0001406 219.8319  58.9219  1.00270829 61597
NSS-12                  
1 36032U 09058A   26064.95337782  .00000065  00000+0  00000+0 0  9997
2 36032   0.0059 271.0884 0004928  59.5811 233.2158  1.00273203 59884
SES-1                   
1 36516U 10016A   26065.18377969 -.00000120  00000+0  00000+0 0  9990
2 36516   0.0493 296.2372 0002490  43.0385 149.7884  1.00272571 58007
ASTRA 3B                
1 36581U 10021A   26065.22970190  .00000132  00000+0  00000+0 0  9990
2 36581   1.2021  84.8990 0003119 281.5715 263.6647  1.00272558 57839
SES-3                   
1 37748U 11035A   26065.18377969 -.00000107  00000+0  00000+0 0  9995
2 37748   1.0603  84.2843 0003582 269.0565 133.7161  1.00272342 53563
ASTRA 1N                
1 37775U 11041A   26064.58702139  .00000113  00000+0  00000+0 0  9992
2 37775   0.0703  22.8506 0004155 356.9516  14.0459  1.00274542 43481
